{
"type": "FeatureCollection",
"name": "limites_rodales",
"crs": { "type": "name", "properties": { "name": "urn:ogc:def:crs:OGC:1.3:CRS84" } },
"features": [
{ "type": "Feature", "properties": { "id": 1, "Nombre": "ruil" }, "geometry": { "type": "MultiPolygon", "coordinates": [ [ [ [ -73.025726548699026, -41.125089699889138 ], [ -73.025557834387058, -41.125247948052717 ], [ -73.025386608199483, -41.125402847048811 ], [ -73.025513039271971, -41.125505415302989 ], [ -73.025595931167175, -41.125456433728544 ], [ -73.025873493422353, -41.125190593559559 ], [ -73.025733665679937, -41.125087188013524 ], [ -73.025726548699026, -41.125089699889138 ] ] ] ] } },
{ "type": "Feature", "properties": { "id": 2, "Nombre": "sequoia" }, "geometry": { "type": "MultiPolygon", "coordinates": [ [ [ [ -73.026078629930694, -41.125327072134503 ], [ -73.025989039700519, -41.125254646387674 ], [ -73.025634446593244, -41.125553140939616 ], [ -73.025806091426745, -41.125681665241778 ], [ -73.026078629930694, -41.125423779345574 ], [ -73.026078629930694, -41.125327072134503 ] ] ] ] } },
{ "type": "Feature", "properties": { "id": 3, "Nombre": "lawson" }, "geometry": { "type": "MultiPolygon", "coordinates": [ [ [ [ -73.028466167700216, -41.126453648346661 ], [ -73.028378670699723, -41.126551192849611 ], [ -73.028370297781009, -41.126597243902502 ], [ -73.028335550168364, -41.126629898285465 ], [ -73.028288661823609, -41.126724512266861 ], [ -73.028773872462722, -41.126876899387348 ], [ -73.028819086223749, -41.126819963540129 ], [ -73.028752102874094, -41.126634922036686 ], [ -73.028708145050871, -41.126557053892704 ], [ -73.028600971691404, -41.126491326480846 ], [ -73.028466167700216, -41.126453648346661 ] ] ] ] } },
{ "type": "Feature", "properties": { "id": 4, "Nombre": "roble" }, "geometry": { "type": "MultiPolygon", "coordinates": [ [ [ [ -73.031239697022102, -41.124611606230893 ], [ -73.031167689921219, -41.124611606230893 ], [ -73.03098097383409, -41.124704964274521 ], [ -73.030833610464839, -41.124879958275521 ], [ -73.030656104588232, -41.124915961825963 ], [ -73.030561490606758, -41.124900471926317 ], [ -73.030466039333561, -41.124918473701577 ], [ -73.030293557208182, -41.124905914323513 ], [ -73.030197268643036, -41.124992992678074 ], [ -73.03027597407889, -41.125188918975837 ], [ -73.030422500156277, -41.125260088784856 ], [ -73.030600843324763, -41.125274322746662 ], [ -73.030765789823306, -41.125191430851451 ], [ -73.03091733965185, -41.125155845946907 ], [ -73.031094845528528, -41.125101840621276 ], [ -73.031193645969211, -41.125036113209383 ], [ -73.031241371605844, -41.124943173811729 ], [ -73.031185273050497, -41.124734688135902 ], [ -73.03123802243843, -41.124673147183437 ], [ -73.031239697022102, -41.124611606230893 ] ] ] ] } },
{ "type": "Feature", "properties": { "id": 5, "Nombre": "oregon" }, "geometry": { "type": "MultiPolygon", "coordinates": [ [ [ [ -73.026020019499626, -41.125843681218761 ], [ -73.025960571776807, -41.125889732271659 ], [ -73.025881029049074, -41.125965088540028 ], [ -73.025699336713117, -41.126116638368643 ], [ -73.025824093201862, -41.126256466111066 ], [ -73.025961409068671, -41.126256466111066 ], [ -73.026035090753297, -41.126217950685003 ], [ -73.026198362668111, -41.125997742922991 ], [ -73.026020019499626, -41.125843681218761 ] ] ] ] } },
{ "type": "Feature", "properties": { "id": 6, "Nombre": "tepa" }, "geometry": { "type": "MultiPolygon", "coordinates": [ [ [ [ -73.030294394500018, -41.123546989617203 ], [ -73.030219875523528, -41.123515172526112 ], [ -73.03013279716896, -41.123522708152947 ], [ -73.029946081081775, -41.123490891061863 ], [ -73.029893331693913, -41.123558711703396 ], [ -73.029910077531326, -41.123611461091251 ], [ -73.029910914823205, -41.12369351569459 ], [ -73.030085908824205, -41.123753800709288 ], [ -73.030115214039682, -41.123796502594701 ], [ -73.030122749666518, -41.123864323236234 ], [ -73.030162939676316, -41.123897814911061 ], [ -73.030232434901592, -41.123898652202932 ], [ -73.030334584509816, -41.12387269615494 ], [ -73.030353004930973, -41.123801526345922 ], [ -73.03028099783009, -41.123708586948268 ], [ -73.030294394500018, -41.123546989617203 ] ] ] ] } },
{ "type": "Feature", "properties": { "id": 7, "Nombre": "alerce" }, "geometry": { "type": "MultiPolygon", "coordinates": [ [ [ [ -73.031840453939424, -41.124645516551674 ], [ -73.031797752054018, -41.124596953623168 ], [ -73.031747514541763, -41.124553414445884 ], [ -73.031659598895331, -41.124541692359692 ], [ -73.031554100119621, -41.12462290967116 ], [ -73.031553262827742, -41.124653052178509 ], [ -73.031506374482987, -41.124704126982628 ], [ -73.031557449287106, -41.124750178035519 ], [ -73.031562473038321, -41.124800415547767 ], [ -73.031621083469275, -41.124800415547767 ], [ -73.031647039517281, -41.124819673260795 ], [ -73.031684717651459, -41.124794554504675 ], [ -73.031760911211705, -41.124731757614363 ], [ -73.031840453939424, -41.124645516551674 ] ] ] ] } }
]
}
