{
  "type": "FeatureCollection",
  "name": "lawson",
  "crs": {
    "type": "name",
    "properties": {
      "name": "urn:ogc:def:crs:EPSG::32718"
    }
  },
  "features": [
    {
      "type": "Feature",
      "properties": {
        "id": 3,
        "Nombre": "lawson"
      },
      "geometry": {
        "type": "MultiPolygon",
        "coordinates": [
          [
            [
              [
                665496.1808668376,
                5445332.069270419
              ],
              [
                665503.2808087883,
                5445321.073484552
              ],
              [
                665503.8679309535,
                5445315.9449395705
              ],
              [
                665506.7028088964,
                5445312.2535727285
              ],
              [
                665510.4011048166,
                5445301.660315587
              ],
              [
                665469.2861208693,
                5445285.664348731
              ],
              [
                665465.6336598442,
                5445292.071340533
              ],
              [
                665471.7217670085,
                5445312.487525783
              ],
              [
                665475.6076095443,
                5445321.048980639
              ],
              [
                665484.7697219604,
                5445328.142417308
              ],
              [
                665496.1808668376,
                5445332.069270419
              ]
            ]
          ]
        ]
      }
    }
  ]
}
