{
  "type": "FeatureCollection",
  "name": "roble",
  "crs": {
    "type": "name",
    "properties": {
      "name": "urn:ogc:def:crs:EPSG::32718"
    }
  },
  "features": [
    {
      "type": "Feature",
      "properties": {
        "id": 4,
        "Nombre": "roble"
      },
      "geometry": {
        "type": "MultiPolygon",
        "coordinates": [
          [
            [
              [
                665267.9739780246,
                5445541.842220814
              ],
              [
                665274.0189536486,
                5445541.70555122
              ],
              [
                665289.4593563103,
                5445530.986450047
              ],
              [
                665301.3911244678,
                5445511.278726486
              ],
              [
                665316.2022357568,
                5445506.944595579
              ],
              [
                665324.1839095212,
                5445508.4846656425
              ],
              [
                665332.1517794771,
                5445506.304862415
              ],
              [
                665346.6630776547,
                5445507.371706558
              ],
              [
                665354.5277556352,
                5445497.521346419
              ],
              [
                665347.4284734684,
                5445475.91889412
              ],
              [
                665334.9490453134,
                5445468.295787878
              ],
              [
                665319.9415944791,
                5445467.054136746
              ],
              [
                665306.3026332996,
                5445476.570019876
              ],
              [
                665293.6695139027,
                5445480.808382543
              ],
              [
                665278.9036339642,
                5445487.141041861
              ],
              [
                665270.7744081451,
                5445494.625685588
              ],
              [
                665267.0011599984,
                5445505.034480769
              ],
              [
                665272.2339102493,
                5445528.074265562
              ],
              [
                665267.9600907366,
                5445535.006713102
              ],
              [
                665267.9739780246,
                5445541.842220814
              ]
            ]
          ]
        ]
      }
    }
  ]
}
