{
  "type": "FeatureCollection",
  "name": "ruil",
  "crs": {
    "type": "name",
    "properties": {
      "name": "urn:ogc:def:crs:EPSG::32718"
    }
  },
  "features": [
    {
      "type": "Feature",
      "properties": {
        "id": 1,
        "Nombre": "ruil"
      },
      "geometry": {
        "type": "MultiPolygon",
        "coordinates": [
          [
            [
              [
                665729.5979284886,
                5445478.28538875
              ],
              [
                665743.3629954482,
                5445460.395405911
              ],
              [
                665757.3472935532,
                5445442.872440706
              ],
              [
                665746.4753632373,
                5445431.725887546
              ],
              [
                665739.6400023152,
                5445437.321648718
              ],
              [
                665717.0081080901,
                5445467.363749209
              ],
              [
                665729.0067865622,
                5445478.577805146
              ],
              [
                665729.5979284886,
                5445478.28538875
              ]
            ]
          ]
        ]
      }
    }
  ]
}
