{
  "type": "FeatureCollection",
  "name": "sequoia",
  "crs": {
    "type": "name",
    "properties": {
      "name": "urn:ogc:def:crs:EPSG::32718"
    }
  },
  "features": [
    {
      "type": "Feature",
      "properties": {
        "id": 2,
        "Nombre": "sequoia"
      },
      "geometry": {
        "type": "MultiPolygon",
        "coordinates": [
          [
            [
              [
                665699.4436360077,
                5445452.602158074
              ],
              [
                665707.1469082395,
                5445460.472441023
              ],
              [
                665736.1632519246,
                5445426.658435073
              ],
              [
                665721.430422833,
                5445412.716240044
              ],
              [
                665699.2002600827,
                5445441.865634695
              ],
              [
                665699.4436360077,
                5445452.602158074
              ]
            ]
          ]
        ]
      }
    }
  ]
}
